GLOBALSTAR M063         
1 26081U 00008A   24274.88918272 -.00000042  00000+0  59921-3 0  9994
2 26081  51.9945  74.4618 0004984 164.9124 348.6281 11.86159753126876
GLOBALSTAR M062         
1 26082U 00008B   24275.39591317  .00000035  00000+0  95110-3 0  9990
2 26082  51.9831 136.8005 0006236 284.0864 247.4466 12.43447985126929
GLOBALSTAR M060         
1 26083U 00008C   24275.39884240 -.00000066  00000+0  24511-3 0  9993
2 26083  52.0024  60.1833 0002649 329.1245  56.9417 12.17644379121013
GLOBALSTAR M064         
1 26084U 00008D   24274.86369301 -.00000085  00000+0 -21593-4 0  9991
2 26084  52.0014 176.4179 0001010 308.5043  51.5699 11.88522989136372
GLOBALSTAR M065         
1 31571U 07020A   24275.24183631  .00000021  00000+0  69661-3 0  9997
2 31571  51.9890 294.4014 0010267  92.6985 346.6256 12.61979737801014
GLOBALSTAR M069         
1 31573U 07020C   24274.95430781 -.00000073  00000+0  17516-3 0  9997
2 31573  51.9935 251.4649 0000532 343.8433  47.7639 12.58766117801809
GLOBALSTAR M072         
1 31574U 07020D   24275.19621966 -.00000093  00000+0  61058-4 0  9995
2 31574  52.0105 346.2694 0000609 140.7695 245.9727 12.62264516800274
GLOBALSTAR M071         
1 31576U 07020F   24274.90740260 -.00000074  00000+0  16754-3 0  9995
2 31576  52.0049 256.3602 0000773 303.1776  73.3934 12.62258097801721
